[{"OBJECT_NAME":"CBERS 4A","OBJECT_ID":"2019-093E","EPOCH":"2026-03-09T22:45:31.017888","MEAN_MOTION":14.81577142,"ECCENTRICITY":0.00028121,"INCLINATION":97.7589,"RA_OF_ASC_NODE":139.3418,"ARG_OF_PERICENTER":122.1597,"MEAN_ANOMALY":237.989,"EPHEMERIS_TYPE":0,"CLASSIFICATION_TYPE":"U","NORAD_CAT_ID":44883,"ELEMENT_SET_NO":999,"REV_AT_EPOCH":33638,"BSTAR":0.00022932403,"MEAN_MOTION_DOT":1.75e-5,"MEAN_MOTION_DDOT":0},{"OBJECT_NAME":"CZ-6A DEB","OBJECT_ID":"2022-151S","EPOCH":"2026-03-09T05:48:50.516640","MEAN_MOTION":14.69560381,"ECCENTRICITY":0.0081654,"INCLINATION":98.8143,"RA_OF_ASC_NODE":161.847,"ARG_OF_PERICENTER":229.9981,"MEAN_ANOMALY":129.4036,"EPHEMERIS_TYPE":0,"CLASSIFICATION_TYPE":"U","NORAD_CAT_ID":54275,"ELEMENT_SET_NO":999,"REV_AT_EPOCH":17551,"BSTAR":0.0027616474,"MEAN_MOTION_DOT":0.00017235,"MEAN_MOTION_DDOT":0}]
